#dP2024  3  9  6  0  0.00000000      96 __u+U IGS20 EXT  IAC
## 2304 540000.00000000   900.00000000 60378 0.2500000000000
+  118   C06C07C08C09C10C11C12C13C14C16C19C20C21C22C23C24C25
+        C26C27C28C29C30C32C33C34C35C36C37C38C39C40C41C42C43
+        C44C45C46E02E03E04E05E07E08E09E10E11E12E13E14E15E18
+        E19E21E24E25E26E27E30E31E33E34E36G01G02G03G05G06G07
+        G08G09G10G11G12G13G14G15G16G17G18G19G20G21G22G23G24
+        G25G26G27G28G29G30G31G32J02J03J04R01R02R03R04R05R07
+        R08R09R11R12R13R14R15R16R17R18R19R20R21R22R24R25  0
++        13  9 11 10  8  8  8 10  7 13  8 10  7  7  9  7  9
++         8  8  9  9  8  8  7  8  9  7  7  9 12  9  8  9  7
++         9  9  7  8  7  7  8  8  8  7  8  7  8  9  8  9  7
++         7  7  7  8  9  8  7  8  9  8  7  7  8  7  7  6  8
++         7  7  7  6  8  7  7  7  8  7  7  7  8  7  8  7  7
++         7  8  7  9  7  7  7  6  9  0  9  7  7  8  8  8  9
++         8  9  8  9  8  8  7  8  9  9  9 10  8  7  9  9  0
%c M  cc GPS ccc cccc cccc cccc cccc ccccc ccccc ccccc ccccc
%c cc cc ccc ccc cccc cccc cccc cccc ccccc ccccc ccccc ccccc
%f  0.0000000  0.000000000  0.00000000000  0.000000000000000
%f  0.0000000  0.000000000  0.00000000000  0.000000000000000
%i    0    0    0    0      0      0      0      0         0
%i    0    0    0    0      0      0      0      0         0
/* IAC                                ULTRA-RAPID PREDICTION
/* S/V CLOCKS ARE ALIGNED TO GNSS TIME                      
/* G:C1WC2W R:C1PC2P E:C1XC5X C:C2IC6I J:C1CC2S             
/* PCV:IGS20_2290 OL/AL:FES2004  NONE     YN ORB:CoN CLK:CoN
*  2024 03 10  5 30  0.00000000
PC06  -9915.284179  40607.700529  -4126.040923    262.856780
PC07  -5544.736425  28148.850587  31011.650715   -931.682560
PC08 -19950.140901  24896.523256 -27675.160952    -25.013650
PC09  -5763.533497  41232.233932   4379.722454   -600.073957
PC10   3117.970933  31017.223488  28914.191092     51.553743
PC11 -12052.793509  14024.538245  20967.982461    452.048798
PC12 -15842.603721  -7508.549144  21750.068286   -209.889920
PC13 -10998.337426  25764.768628 -31434.491090    423.749726
PC14 -19514.691521   6578.864918 -18785.086695    371.536977
PC16 -11897.043467  39479.650577  -7585.946914   -387.270938
PC19  10763.135420 -12367.517898  22615.660411   -920.352704
PC20  24474.108002   -839.199932  13430.212681   -241.844089
PC21 -24540.259055 -12343.517320   4850.301710   -961.363115
PC22  -9935.502797 -17489.074292  19333.697648    -80.382871
PC23  -2276.647961  20123.628453  19198.074615   -776.996127
PC24 -23675.894144   8845.081748 -11877.510303    957.905623
PC25 -17553.392509  20983.734006   5544.644097    345.797551
PC26 -15724.298462  -7156.575192 -21941.511283   -260.621992
PC27  14853.857750  16502.773273 -16916.342527    282.547031
PC28   6686.999352  26937.778615  -2875.168829    215.393673
PC29   6529.844185 -22156.954393 -15668.374611    252.551244
PC30  15732.855355  -3183.349809 -22836.234399    -36.024053
PC32  24644.039596  12164.903102  -4875.866058   -580.450992
PC33 -10743.810031  12413.951281 -22553.467547   -956.155928
PC34 -15366.258353   4931.667992  22751.938902    386.825682
PC35  -7600.661727 -26737.257299   2697.236723    414.763832
PC36  18263.811860 -20442.102014  -5185.321486     13.106565
PC37  15216.488900   7880.252342  22025.245669   -943.101334
PC38 -25712.026323  26284.512434 -20693.923134    141.795975
PC39 -13437.889927  37167.798330 -14299.864720     -7.496794
PC40  -9014.786124  22473.276443  34538.302925    -60.087191
PC41   9190.613359  17449.693726 -19690.411660   -903.044920
PC42 -25154.062446   -301.916772 -11997.969123   -448.075889
PC43  -7221.087842  21487.888254  16246.713126     63.545850
PC44 -15523.378438 -16119.033957  16678.339472    408.714288
PC45   2239.185836 -19977.045723 -19354.670043    -74.785654
PC46  23700.469863  -9545.869750  11164.637455   -130.392992
PE02 -28674.774625   6077.464747   4181.692873    109.962914
PE03 -18620.619787   1849.500975 -22931.423380    -99.251256
PE04   4240.405825 -19684.822983  21706.767846   -346.103260
PE05 -21888.833210 -16782.321106 -10734.583467   4727.637576
PE07  12105.030136  25752.620640  -8157.762346   -108.074658
PE08  -4756.173160  19114.476387 -22093.305949   -236.511907
PE09 -12044.591423 -25721.071689   8321.603930   -364.998809
PE10   6747.190312 -27846.395027   7435.876692   -608.133256
PE11  -1046.775681 -24519.433332  16557.021254   3185.390597
PE12  12776.589901 -26657.706514  -1774.691768   -941.728162
PE13    547.764904  24822.332256 -16098.899095    -20.477796
PE14   5958.007215  26195.641960  11821.095528     62.147410
PE15 -13038.800674  26461.762891   2344.826901    -90.360852
PE18   5369.440412 -19826.002311 -18283.851660    418.166070
PE19  19516.034509    537.749166  22260.254897   -461.727095
PE21  25584.390195   6418.156957  13419.088634   -583.157134
PE24  -6994.034579 -15953.913603 -23957.004947   -642.732250
PE25 -25351.662766  -6677.427498 -13754.138133      1.918227
PE26  14048.654879   8109.983158 -24753.072481    392.046829
PE27   7417.275673  15780.777312  23910.517239   -294.900187
PE30 -15157.691239  15657.133237  20020.264620    -79.228498
PE31  14883.849307 -15726.718635 -20181.004570    -17.896636
PE33  18776.659348 -12036.464356 -19458.977334      8.788162
PE34 -18752.348111  12608.276331  19117.198910    -99.122112
PE36 -13572.214466  -8731.422040  24819.089861   -197.117493
PG01 -11510.390366  23637.042148   1822.487732    173.192898
PG02 -14593.561789  18724.132070  12121.836957   -472.740929
PG03 -18941.645440  12113.469553 -14188.681564    242.931051
PG05  25897.960227  -5884.191427   1481.709757   -164.826033
PG06   9102.426812  13590.098001 -20831.452302    374.350781
PG07  -3666.661799  24838.532780   8377.452897    -80.778575
PG08 -15739.211916   4271.265982  20935.267911     43.901763
PG09   3281.097392  21308.899997 -15554.550596    119.369954
PG10 -13929.044154 -11428.152910  19832.092238      0.249405
PG11  15696.004537   1211.440106 -21361.423042   -601.926046
PG12  20233.794981 -10858.753967 -13579.186868   -485.731033
PG13  18012.481569   6108.872277  18429.800598    632.791090
PG14   9713.064508  13830.133451  20555.666803    346.618370
PG15  15273.477337  -6230.585456  20361.868062    136.063231
PG16 -26611.933963  -1039.006530  -3407.816133   -344.642757
PG17  11998.071648  23217.931182   4659.039875    714.244418
PG18   3876.884161 -24585.720378   9012.608962   -572.462909
PG19  16869.334817  20086.896017  -5464.528153    451.852477
PG20  24123.148285    328.097938 -10869.081619    384.495257
PG21 -15930.452775  13611.857394  16163.855431    131.942484
PG22  16815.072266  11368.404799  17401.195890     18.356882
PG23   -247.648209 -14963.384757  21955.115035    173.713415
PG24  14921.741048 -17470.614198  12551.575789   -444.095916
PG25   9834.005435 -15549.483548 -19401.104531    490.891141
PG26 -22114.643221  -5800.448451 -13965.848698    181.290905
PG27 -20091.553345  -8426.338808  15202.502497    -10.618901
PG28  -8405.565616 -16176.571752 -19335.294263   -158.992789
PG29    131.349957 -20561.222690 -16805.730762   -605.187248
PG30   4686.848728  20365.052233  16370.052002   -421.832993
PG31 -14168.966161  -6144.910984 -21817.611592   -227.959791
PG32 -15614.179940 -21575.204841   1678.079179   -615.258561
PJ02 -30960.692173  23186.089093  21897.989225     -2.757174
PJ03      0.000000      0.000000      0.000000     -0.217423
PJ04 -26159.136303  20717.014955 -20700.674817     50.723722
PR01  -4216.333359 -13719.272305  21090.928096     79.273103
PR02 -18374.411697 -15561.680734   8568.398313    -22.562823
PR03 -22472.173088  -8237.152088  -8851.530895     96.074523
PR04 -14007.100812   3044.970741 -21067.509959    226.891552
PR05   1808.648499  12899.065326 -21909.489258    128.180413
PR07  22260.912541   7609.486565   9845.267049     77.602645
PR08  13800.242601  -3496.630118  21223.176949    -74.691398
PR09   8289.066111   8129.499313  22732.046760    174.472439
PR11  21875.696347 -13132.287048   -330.612066     31.755839
PR12   9733.604279 -15516.513784 -17726.711735     37.617422
PR13  -5648.183187  -9510.077314 -23004.269296    -45.163129
PR14 -20471.988663   3830.107491 -14708.461264     26.189392
PR15 -21513.753538  13569.690214   1900.566345     81.472021
PR16  -9935.853694  15517.046548  17626.374827     23.870855
PR17 -10471.441710  -3486.266382  23002.268636     67.709860
PR18  -8981.288864  14057.678319  19289.433716    131.366803
PR19  -4441.643917  24046.352103   7253.117380   -268.822511
PR20   4908.796234  21063.832723 -13475.709493   -109.579723
PR21  10367.785593   3446.272958 -23050.971354    -83.355380
PR22   9419.249105 -14890.667314 -18426.836924    112.014188
PR24  -6302.603998 -20486.309401  13840.510952    -47.190534
PR25  10636.623913   3787.529547 -22868.981560    -21.822646
EOF
